{
  "type": "FeatureCollection",
  "features": [
    {
      "type": "Feature",
      "properties": {
        "norad_id": 33376,
        "name": "GALAXY 19 (G-19)",
        "group": "intelsat",
        "lat": 0.034107559887343,
        "lon": 99.15432870276574,
        "alt_km": 35797.32244235351,
        "timestamp": "2025-12-13T07:35:41.207943+00:00",
        "meta_object_name": "GALAXY 19 (G-19)",
        "meta_object_id": "2008-045A",
        "meta_epoch": "2025-12-12T23:17:30.645312",
        "meta_mean_motion": 1.00269749,
        "meta_eccentricity": 0.00026009,
        "meta_inclination": 0.0185,
        "meta_ra_of_asc_node": 357.3328,
        "meta_arg_of_pericenter": 267.4977,
        "meta_mean_anomaly": 69.4562,
        "meta_ephemeris_type": 0,
        "meta_classification_type": "U",
        "meta_norad_cat_id": 33376,
        "meta_element_set_no": 999,
        "meta_rev_at_epoch": 6303,
        "meta_bstar": 0,
        "meta_mean_motion_dot": 0,
        "meta_mean_motion_ddot": 0,
        "tle_line1": "1 33376U 08045A   25346.97049358  .00000000  00000+0  00000+0 0  9992",
        "tle_line2": "2 33376   0.0185 357.3328 0002600 267.4977  69.4562  1.00269749 63031"
      },
      "geometry": {
        "type": "Point",
        "coordinates": [
          99.15432870276574,
          0.034107559887343
        ]
      }
    },
    {
      "type": "Feature",
      "properties": {
        "norad_id": 35493,
        "name": "FM-5",
        "group": "intelsat",
        "lat": 0.008762664179608916,
        "lon": 110.01293465190376,
        "alt_km": 35784.49046839186,
        "timestamp": "2025-12-13T07:35:41.207954+00:00",
        "meta_object_name": "FM-5",
        "meta_object_id": "2009-034A",
        "meta_epoch": "2025-12-12T21:37:51.926016",
        "meta_mean_motion": 1.0027111,
        "meta_eccentricity": 7.77e-05,
        "meta_inclination": 0.0177,
        "meta_ra_of_asc_node": 289.9494,
        "meta_arg_of_pericenter": 236.3866,
        "meta_mean_anomaly": 153.8282,
        "meta_ephemeris_type": 0,
        "meta_classification_type": "U",
        "meta_norad_cat_id": 35493,
        "meta_element_set_no": 999,
        "meta_rev_at_epoch": 4477,
        "meta_bstar": 0,
        "meta_mean_motion_dot": -1.88e-06,
        "meta_mean_motion_ddot": 0,
        "tle_line1": "1 35493U 09034A   25346.90129544 -.00000188  00000+0  00000+0 0  9990",
        "tle_line2": "2 35493   0.0177 289.9494 0000777 236.3866 153.8282  1.00271110 44775"
      },
      "geometry": {
        "type": "Point",
        "coordinates": [
          110.01293465190376,
          0.008762664179608916
        ]
      }
    },
    {
      "type": "Feature",
      "properties": {
        "norad_id": 36097,
        "name": "INTELSAT 14 (IS-14)",
        "group": "intelsat",
        "lat": 0.016011883790673444,
        "lon": 151.14526926064758,
        "alt_km": 35790.55248139124,
        "timestamp": "2025-12-13T07:35:41.207964+00:00",
        "meta_object_name": "INTELSAT 14 (IS-14)",
        "meta_object_id": "2009-064A",
        "meta_epoch": "2025-12-12T23:32:21.722208",
        "meta_mean_motion": 1.00272237,
        "meta_eccentricity": 0.00024896,
        "meta_inclination": 0.0163,
        "meta_ra_of_asc_node": 33.8162,
        "meta_arg_of_pericenter": 233.0714,
        "meta_mean_anomaly": 123.1283,
        "meta_ephemeris_type": 0,
        "meta_classification_type": "U",
        "meta_norad_cat_id": 36097,
        "meta_element_set_no": 999,
        "meta_rev_at_epoch": 5873,
        "meta_bstar": 0,
        "meta_mean_motion_dot": -2.61e-06,
        "meta_mean_motion_ddot": 0,
        "tle_line1": "1 36097U 09064A   25346.98080697 -.00000261  00000+0  00000+0 0  9999",
        "tle_line2": "2 36097   0.0163  33.8162 0002489 233.0714 123.1283  1.00272237 58730"
      },
      "geometry": {
        "type": "Point",
        "coordinates": [
          151.14526926064758,
          0.016011883790673444
        ]
      }
    },
    {
      "type": "Feature",
      "properties": {
        "norad_id": 36106,
        "name": "INTELSAT 15 (IS-15)",
        "group": "intelsat",
        "lat": -0.015751569641512253,
        "lon": -78.67642302097367,
        "alt_km": 35776.393707026866,
        "timestamp": "2025-12-13T07:35:41.207975+00:00",
        "meta_object_name": "INTELSAT 15 (IS-15)",
        "meta_object_id": "2009-067A",
        "meta_epoch": "2025-12-12T22:26:47.239008",
        "meta_mean_motion": 1.00272291,
        "meta_eccentricity": 0.00023097,
        "meta_inclination": 0.0189,
        "meta_ra_of_asc_node": 295.6726,
        "meta_arg_of_pericenter": 334.1519,
        "meta_mean_anomaly": 233.8999,
        "meta_ephemeris_type": 0,
        "meta_classification_type": "U",
        "meta_norad_cat_id": 36106,
        "meta_element_set_no": 999,
        "meta_rev_at_epoch": 3936,
        "meta_bstar": 0,
        "meta_mean_motion_dot": -1.73e-06,
        "meta_mean_motion_ddot": 0,
        "tle_line1": "1 36106U 09067A   25346.93526897 -.00000173  00000+0  00000+0 0  9997",
        "tle_line2": "2 36106   0.0189 295.6726 0002309 334.1519 233.8999  1.00272291 39361"
      },
      "geometry": {
        "type": "Point",
        "coordinates": [
          -78.67642302097367,
          -0.015751569641512253
        ]
      }
    },
    {
      "type": "Feature",
      "properties": {
        "norad_id": 36131,
        "name": "DIRECTV 12",
        "group": "intelsat",
        "lat": 0.0031728153736844166,
        "lon": 93.45640074470214,
        "alt_km": 35786.337982793644,
        "timestamp": "2025-12-13T07:35:41.207986+00:00",
        "meta_object_name": "DIRECTV 12",
        "meta_object_id": "2009-075A",
        "meta_epoch": "2025-12-12T21:33:07.379712",
        "meta_mean_motion": 1.00272368,
        "meta_eccentricity": 5.628e-05,
        "meta_inclination": 0.0421,
        "meta_ra_of_asc_node": 134.0274,
        "meta_arg_of_pericenter": 219.2719,
        "meta_mean_anomaly": 309.1038,
        "meta_ephemeris_type": 0,
        "meta_classification_type": "U",
        "meta_norad_cat_id": 36131,
        "meta_element_set_no": 999,
        "meta_rev_at_epoch": 4468,
        "meta_bstar": 0,
        "meta_mean_motion_dot": -9.1e-07,
        "meta_mean_motion_ddot": 0,
        "tle_line1": "1 36131U 09075A   25346.89800208 -.00000091  00000+0  00000+0 0  9999",
        "tle_line2": "2 36131   0.0421 134.0274 0000562 219.2719 309.1038  1.00272368 44683"
      },
      "geometry": {
        "type": "Point",
        "coordinates": [
          93.45640074470214,
          0.0031728153736844166
        ]
      }
    },
    {
      "type": "Feature",
      "properties": {
        "norad_id": 36397,
        "name": "INTELSAT 16 (IS-16)",
        "group": "intelsat",
        "lat": 0.014786480113612631,
        "lon": 119.95645672988695,
        "alt_km": 35793.09409846116,
        "timestamp": "2025-12-13T07:35:41.207996+00:00",
        "meta_object_name": "INTELSAT 16 (IS-16)",
        "meta_object_id": "2010-006A",
        "meta_epoch": "2025-12-12T23:23:22.582752",
        "meta_mean_motion": 1.00272101,
        "meta_eccentricity": 0.00020652,
        "meta_inclination": 0.0077,
        "meta_ra_of_asc_node": 333.3523,
        "meta_arg_of_pericenter": 290.6328,
        "meta_mean_anomaly": 92.5778,
        "meta_ephemeris_type": 0,
        "meta_classification_type": "U",
        "meta_norad_cat_id": 36397,
        "meta_element_set_no": 999,
        "meta_rev_at_epoch": 5778,
        "meta_bstar": 0,
        "meta_mean_motion_dot": -2.32e-06,
        "meta_mean_motion_ddot": 0,
        "tle_line1": "1 36397U 10006A   25346.97456693 -.00000232  00000+0  00000+0 0  9990",
        "tle_line2": "2 36397   0.0077 333.3523 0002065 290.6328  92.5778  1.00272101 57788"
      },
      "geometry": {
        "type": "Point",
        "coordinates": [
          119.95645672988695,
          0.014786480113612631
        ]
      }
    },
    {
      "type": "Feature",
      "properties": {
        "norad_id": 37185,
        "name": "XM-5",
        "group": "intelsat",
        "lat": 0.026883879972970398,
        "lon": 80.95859172153381,
        "alt_km": 35783.24298642265,
        "timestamp": "2025-12-13T07:35:41.208007+00:00",
        "meta_object_name": "XM-5",
        "meta_object_id": "2010-053A",
        "meta_epoch": "2025-12-12T21:29:37.715424",
        "meta_mean_motion": 1.00273281,
        "meta_eccentricity": 0.00015644,
        "meta_inclination": 0.0594,
        "meta_ra_of_asc_node": 271.8058,
        "meta_arg_of_pericenter": 237.8233,
        "meta_mean_anomaly": 139.4218,
        "meta_ephemeris_type": 0,
        "meta_classification_type": "U",
        "meta_norad_cat_id": 37185,
        "meta_element_set_no": 999,
        "meta_rev_at_epoch": 5561,
        "meta_bstar": 0,
        "meta_mean_motion_dot": -1.1e-07,
        "meta_mean_motion_ddot": 0,
        "tle_line1": "1 37185U 10053A   25346.89557541 -.00000011  00000+0  00000+0 0  9998",
        "tle_line2": "2 37185   0.0594 271.8058 0001564 237.8233 139.4218  1.00273281 55618"
      },
      "geometry": {
        "type": "Point",
        "coordinates": [
          80.95859172153381,
          0.026883879972970398
        ]
      }
    }
  ]
}